NORAD_CAT_ID,OBJECT_NAME,OBJECT_TYPE,EPOCH,MEAN_MOTION,ECCENTRICITY,INCLINATION,RA_OF_ASC_NODE,ARG_OF_PERICENTER,MEAN_ANOMALY,BSTAR,MEAN_MOTION_DOT,MEAN_MOTION_DDOT,TLE_LINE0,TLE_LINE1,TLE_LINE2,SEMIMAJOR_AXIS,PERIOD,APOGEE,PERIGEE,DECAYED
52605.0,STARLINK-4000,PAYLOAD,2024-05-22 19:49:45,15.08841455,0.0001286,53.2173,348.1848,75.6143,284.4991,0.00011693,1.574e-05,0.0,0 STARLINK-4000,1 52605U 22052H   24143.82621543  .00001574  00000-0  11693-3 0  9994,2 52605  53.2173 348.1848 0001286  75.6143 284.4991 15.08841455112147,6917.876,95.437,540.631,538.851,0.0
52605.0,STARLINK-4000,PAYLOAD,2024-05-22 23:00:31,15.08842559,0.0001291,53.2174,347.5897,75.9134,284.2001,0.00012495,1.701e-05,0.0,0 STARLINK-4000,1 52605U 22052H   24143.95869479  .00001701  00000-0  12495-3 0  9993,2 52605  53.2174 347.5897 0001291  75.9134 284.2001 15.08842559111790,6917.873,95.437,540.631,538.844,0.0
52605.0,STARLINK-4000,PAYLOAD,2024-05-23 19:40:32,15.08842683,0.0001757,53.2182,343.7208,57.8178,302.2984,7.0373e-05,8.32e-06,0.0,0 STARLINK-4000,1 52605U 22052H   24144.81981639  .00000832  00000-0  70373-4 0  9996,2 52605  53.2182 343.7208 0001757  57.8178 302.2984 15.08842683111921,6917.872,95.437,540.953,538.522,0.0
52605.0,STARLINK-4000,PAYLOAD,2024-05-23 22:51:18,15.08846055,0.0001419,53.2179,343.1264,71.5838,288.5308,2.1665e-05,5.7e-07,0.0,0 STARLINK-4000,1 52605U 22052H   24144.95229323  .00000057  00000-0  21665-4 0  9995,2 52605  53.2179 343.1264 0001419  71.5838 288.5308 15.08846055112311,6917.862,95.437,540.709,538.745,0.0
52605.0,STARLINK-4000,PAYLOAD,2024-05-24 13:09:46,15.08838861,0.0001462,53.2189,340.4512,114.4402,245.6743,9.537e-05,1.23e-05,0.0,0 STARLINK-4000,1 52605U 22052H   24145.54845449  .00001230  00000-0  95370-4 0  9992,2 52605  53.2189 340.4512 0001462 114.4402 245.6743 15.08838861112032,6917.884,95.438,540.76,538.737,0.0
52605.0,STARLINK-4000,PAYLOAD,2024-05-24 19:31:18,15.0885115,8.73e-05,53.2151,339.2712,103.7552,256.3537,7.1665e-05,8.53e-06,0.0,0 STARLINK-4000,1 52605U 22052H   24145.81340599  .00000853  00000-0  71665-4 0  9999,2 52605  53.2151 339.2712 0000873 103.7552 256.3537 15.08851150112442,6917.846,95.437,540.315,539.107,0.0
52605.0,STARLINK-4000,PAYLOAD,2024-05-24 19:31:19,15.08833549,7.86e-05,53.2174,339.265,111.9527,248.1549,-8.5887e-06,-4.24e-06,0.0,0 STARLINK-4000,1 52605U 22052H   24145.81341822 -.00000424  00000-0 -85887-5 0  9997,2 52605  53.2174 339.2650 0000786 111.9527 248.1549 15.08833549112448,6917.9,95.438,540.309,539.221,0.0
52605.0,STARLINK-4000,PAYLOAD,2024-05-25 19:22:18,15.08669249,4.59e-05,53.2161,334.8187,355.1735,4.9252,-0.0014993,-0.00023958,0.0,0 STARLINK-4000,1 52605U 22052H   24146.80715661 -.00023958  00000-0 -14993-2 0  9997,2 52605  53.2161 334.8187 0000459 355.1735   4.9252 15.08669249112599,6918.402,95.448,540.585,539.95,0.0
52605.0,STARLINK-4000,PAYLOAD,2024-05-26 03:19:01,15.08842355,9.94e-05,53.217,333.3186,108.6066,251.5034,2.0498e-05,3.9e-07,0.0,0 STARLINK-4000,1 52605U 22052H   24147.13821189  .00000039  00000-0  20498-4 0  9999,2 52605  53.2170 333.3186 0000994 108.6066 251.5034 15.08842355112649,6917.873,95.437,540.426,539.051,0.0
52605.0,STARLINK-4000,PAYLOAD,2024-05-26 22:23:39,15.08841708,9.81e-05,53.217,329.7502,85.7505,274.36,-3.031e-05,-7.7e-06,0.0,0 STARLINK-4000,1 52605U 22052H   24147.93309608 -.00000770  00000-0 -30310-4 0  9992,2 52605  53.2170 329.7502 0000981  85.7505 274.3600 15.08841708112394,6917.875,95.437,540.419,539.062,0.0
52605.0,STARLINK-4000,PAYLOAD,2024-05-27 19:03:40,15.08835079,9.6e-05,53.2178,325.8831,90.4353,269.6749,0.00013374,1.841e-05,0.0,0 STARLINK-4000,1 52605U 22052H   24148.79421813  .00001841  00000-0  13374-3 0  9998,2 52605  53.2178 325.8831 0000960  90.4353 269.6749 15.08835079112525,6917.895,95.438,540.425,539.096,0.0
52605.0,STARLINK-4000,PAYLOAD,2024-05-28 04:35:59,15.08837594,9.03e-05,53.2176,324.0989,98.8072,261.3022,0.00013547,1.869e-05,0.0,0 STARLINK-4000,1 52605U 22052H   24149.19165767  .00001869  00000-0  13547-3 0  9998,2 52605  53.2176 324.0989 0000903  98.8072 261.3022 15.08837594112959,6917.888,95.438,540.377,539.128,0.0
52605.0,STARLINK-4000,PAYLOAD,2024-05-28 22:05:13,15.08840248,9.47e-05,53.2172,320.8288,92.2069,267.9031,8.7461e-05,1.104e-05,0.0,0 STARLINK-4000,1 52605U 22052H   24149.92029954  .00001104  00000-0  87461-4 0  9995,2 52605  53.2172 320.8288 0000947  92.2069 267.9031 15.08840248112696,6917.88,95.438,540.4,539.09,0.0
52605.0,STARLINK-4000,PAYLOAD,2024-05-29 10:48:18,15.08840603,9.43e-05,53.2172,318.4494,94.7881,265.3219,7.0166e-05,8.29e-06,0.0,0 STARLINK-4000,1 52605U 22052H   24150.45021956  .00000829  00000-0  70166-4 0  9996,2 52605  53.2172 318.4494 0000943  94.7881 265.3219 15.08840603113149,6917.879,95.438,540.396,539.091,0.0
52605.0,STARLINK-4000,PAYLOAD,2024-05-29 20:20:37,15.08844957,9.63e-05,53.2174,316.6653,97.5147,262.5954,0.00010803,1.432e-05,0.0,0 STARLINK-4000,1 52605U 22052H   24150.84765643  .00001432  00000-0  10803-3 0  9999,2 52605  53.2174 316.6653 0000963  97.5147 262.5954 15.08844957112832,6917.865,95.437,540.396,539.064,0.0
52605.0,STARLINK-4000,PAYLOAD,2024-05-30 10:39:05,15.08842785,9.73e-05,53.2174,313.9894,107.0977,253.0122,7.1646e-05,8.53e-06,0.0,0 STARLINK-4000,1 52605U 22052H   24151.44381776  .00000853  00000-0  71646-4 0  9996,2 52605  53.2174 313.9894 0000973 107.0977 253.0122 15.08842785112927,6917.872,95.437,540.41,539.064,0.0
52605.0,STARLINK-4000,PAYLOAD,2024-05-30 17:00:38,15.0884518,9.66e-05,53.2171,312.7999,105.1709,254.939,8.8083e-05,1.115e-05,0.0,0 STARLINK-4000,1 52605U 22052H   24151.70877588  .00001115  00000-0  88083-4 0  9991,2 52605  53.2171 312.7999 0000966 105.1709 254.9390 15.08845180113336,6917.865,95.437,540.398,539.061,0.0
52605.0,STARLINK-4000,PAYLOAD,2024-05-31 10:29:52,15.08847078,9.68e-05,53.217,309.5287,105.3139,254.796,9.4089e-05,1.21e-05,0.0,0 STARLINK-4000,1 52605U 22052H   24152.43741224  .00001210  00000-0  94089-4 0  9998,2 52605  53.2170 309.5287 0000968 105.3139 254.7960 15.08847078113070,6917.859,95.437,540.393,539.054,0.0
52605.0,STARLINK-4000,PAYLOAD,2024-05-31 16:51:25,15.08842014,9.95e-05,53.2176,308.3394,95.1788,264.9318,2.1395e-05,5.3e-07,0.0,0 STARLINK-4000,1 52605U 22052H   24152.70237653  .00000053  00000-0  21395-4 0  9998,2 52605  53.2176 308.3394 0000995  95.1788 264.9318 15.08842014113488,6917.874,95.437,540.428,539.051,0.0
52605.0,STARLINK-4000,PAYLOAD,2024-06-01 10:20:40,15.08835738,9.45e-05,53.216,305.0694,88.7156,271.3944,5.4065e-05,5.73e-06,0.0,0 STARLINK-4000,1 52605U 22052H   24153.43101954  .00000573  00000-0  54065-4 0  9990,2 52605  53.2160 305.0694 0000945  88.7156 271.3944 15.08835738113224,6917.893,95.438,540.412,539.105,0.0
52605.0,STARLINK-4000,PAYLOAD,2024-06-01 16:42:13,15.08829805,9.01e-05,53.2164,303.8801,85.7284,274.3811,9.8669e-06,-1.31e-06,0.0,0 STARLINK-4000,1 52605U 22052H   24153.69598589 -.00000131  00000-0  98669-5 0  9992,2 52605  53.2164 303.8801 0000901  85.7284 274.3811 15.08829805113634,6917.912,95.438,540.4,539.153,0.0
52605.0,STARLINK-4000,PAYLOAD,2024-06-02 19:43:46,15.08836792,9.79e-05,53.2168,298.8246,76.0871,284.023,7.041e-05,8.33e-06,0.0,0 STARLINK-4000,1 52605U 22052H   24154.82206382  .00000833  00000-0  70410-4 0  9996,2 52605  53.2168 298.8246 0000979  76.0871 284.0230 15.08836792113809,6917.89,95.438,540.432,539.078,0.0
52605.0,STARLINK-4000,PAYLOAD,2024-06-03 02:05:18,15.08846889,0.0001106,53.2193,297.638,78.0997,282.0119,9.0849e-05,1.159e-05,0.0,0 STARLINK-4000,1 52605U 22052H   24155.08701680  .00001159  00000-0  90849-4 0  9996,2 52605  53.2193 297.6380 0001106  78.0997 282.0119 15.08846889113843,6917.859,95.437,540.489,538.959,0.0
52605.0,STARLINK-4000,PAYLOAD,2024-06-03 10:02:14,15.08838661,0.000182,53.2181,296.1518,88.3139,271.8061,0.00020677,3.004e-05,0.0,0 STARLINK-4000,1 52605U 22052H   24155.41822323  .00003004  00000-0  20677-3 0  9993,2 52605  53.2181 296.1518 0001820  88.3139 271.8061 15.08838661113898,6917.884,95.438,541.009,538.49,0.0
52605.0,STARLINK-4000,PAYLOAD,2024-06-03 16:23:47,15.08840092,0.0001654,53.2183,294.9585,87.8311,272.2871,0.00017012,2.42e-05,0.0,0 STARLINK-4000,1 52605U 22052H   24155.68318355  .00002420  00000-0  17012-3 0  9997,2 52605  53.2183 294.9585 0001654  87.8311 272.2871 15.08840092113560,6917.88,95.438,540.889,538.601,0.0
52605.0,STARLINK-4000,PAYLOAD,2024-06-04 01:56:05,15.08845632,0.0001659,53.2186,293.173,84.8285,275.2897,0.0001721,2.452e-05,0.0,0 STARLINK-4000,1 52605U 22052H   24156.08061992  .00002452  00000-0  17210-3 0  9999,2 52605  53.2186 293.1730 0001659  84.8285 275.2897 15.08845632113621,6917.863,95.437,540.876,538.581,0.0
52605.0,STARLINK-4000,PAYLOAD,2024-06-04 17:49:57,15.0884189,0.0002192,53.2194,290.2015,80.6422,279.4818,-2.7415e-05,-7.25e-06,0.0,0 STARLINK-4000,1 52605U 22052H   24156.74303136 -.00000725  00000-0 -27415-4 0  9993,2 52605  53.2194 290.2015 0002192  80.6422 279.4818 15.08841890114097,6917.875,95.437,541.256,538.223,0.0
52605.0,STARLINK-4000,PAYLOAD,2024-06-05 01:46:52,15.08851937,0.000212,53.2162,288.7142,82.5993,277.524,3.9968e-05,3.48e-06,0.0,0 STARLINK-4000,1 52605U 22052H   24157.07422182  .00000348  00000-0  39968-4 0  9998,2 52605  53.2162 288.7142 0002120  82.5993 277.5240 15.08851937114147,6917.844,95.437,541.175,538.242,0.0
52605.0,STARLINK-4000,PAYLOAD,2024-06-05 17:40:46,15.08827323,0.0002079,53.2156,285.7394,90.4109,269.7122,-5.8219e-05,-1.214e-05,0.0,0 STARLINK-4000,1 52605U 22052H   24157.73664388 -.00001214  00000-0 -58219-4 0  9992,2 52605  53.2156 285.7394 0002079  90.4109 269.7122 15.08827323114241,6917.919,95.438,541.222,538.346,0.0
52605.0,STARLINK-4000,PAYLOAD,2024-06-06 01:37:40,15.08843986,0.0001765,53.224,284.2524,85.1004,275.0189,0.00010378,1.364e-05,0.0,0 STARLINK-4000,1 52605U 22052H   24158.06782775  .00001364  00000-0  10378-3 0  9997,2 52605  53.2240 284.2524 0001765  85.1004 275.0189 15.08843986114291,6917.868,95.437,540.954,538.512,0.0
